[{"OBJECT_NAME":"YAOGAN-40 03A","OBJECT_ID":"2025-199A","EPOCH":"2026-03-09T23:03:31.278816","MEAN_MOTION":14.26419606,"ECCENTRICITY":0.00148498,"INCLINATION":85.9829,"RA_OF_ASC_NODE":86.7514,"ARG_OF_PERICENTER":35.6299,"MEAN_ANOMALY":324.588,"EPHEMERIS_TYPE":0,"CLASSIFICATION_TYPE":"U","NORAD_CAT_ID":65544,"ELEMENT_SET_NO":999,"REV_AT_EPOCH":2627,"BSTAR":0.00017546994,"MEAN_MOTION_DOT":4.42e-6,"MEAN_MOTION_DDOT":0},{"OBJECT_NAME":"CZ-6A DEB","OBJECT_ID":"2024-140AAY","EPOCH":"2026-03-09T00:56:48.366816","MEAN_MOTION":14.24183256,"ECCENTRICITY":0.00370944,"INCLINATION":88.9929,"RA_OF_ASC_NODE":285.4179,"ARG_OF_PERICENTER":166.0462,"MEAN_ANOMALY":194.1765,"EPHEMERIS_TYPE":0,"CLASSIFICATION_TYPE":"U","NORAD_CAT_ID":61490,"ELEMENT_SET_NO":999,"REV_AT_EPOCH":7735,"BSTAR":0.00065400695,"MEAN_MOTION_DOT":1.531e-5,"MEAN_MOTION_DDOT":0}]
